[{"OBJECT_NAME":"FLOCK 4Q-29","OBJECT_ID":"2023-174BA","EPOCH":"2026-03-09T17:08:34.461600","MEAN_MOTION":15.49539999,"ECCENTRICITY":0.00076444,"INCLINATION":97.3934,"RA_OF_ASC_NODE":157.4868,"ARG_OF_PERICENTER":141.6903,"MEAN_ANOMALY":218.4893,"EPHEMERIS_TYPE":0,"CLASSIFICATION_TYPE":"U","NORAD_CAT_ID":58304,"ELEMENT_SET_NO":999,"REV_AT_EPOCH":13032,"BSTAR":0.00060684089,"MEAN_MOTION_DOT":0.00033498,"MEAN_MOTION_DDOT":0},{"OBJECT_NAME":"HORS 4 (RS82S)","OBJECT_ID":"2024-199V","EPOCH":"2026-03-09T21:47:16.934496","MEAN_MOTION":15.51209314,"ECCENTRICITY":0.00051454,"INCLINATION":97.3098,"RA_OF_ASC_NODE":303.8763,"ARG_OF_PERICENTER":286.2787,"MEAN_ANOMALY":73.7899,"EPHEMERIS_TYPE":0,"CLASSIFICATION_TYPE":"U","NORAD_CAT_ID":61754,"ELEMENT_SET_NO":999,"REV_AT_EPOCH":12221,"BSTAR":0.00073987436,"MEAN_MOTION_DOT":0.00043371,"MEAN_MOTION_DDOT":0}]
